NORAD_CAT_ID,OBJECT_NAME,OBJECT_TYPE,EPOCH,MEAN_MOTION,ECCENTRICITY,INCLINATION,RA_OF_ASC_NODE,ARG_OF_PERICENTER,MEAN_ANOMALY,BSTAR,MEAN_MOTION_DOT,MEAN_MOTION_DDOT,TLE_LINE0,TLE_LINE1,TLE_LINE2,SEMIMAJOR_AXIS,PERIOD,APOGEE,PERIGEE,DECAYED
49415.0,STARLINK-3159,PAYLOAD,2022-04-06 14:00:01,15.08808431,0.00025,53.216,172.5963,28.318,232.9159,0.0027038,0.0004297,0.0,0 STARLINK-3159,1 49415U 21104H   22096.58334491  .00042970  00000-0  27038-2 0  9991,2 49415  53.2160 172.5963 0002500  28.3180 232.9159 15.08808431 23503,6917.977,95.44,541.571,538.112,0.0
49415.0,STARLINK-3159,PAYLOAD,2022-04-06 22:00:00,15.08846099,0.0002367,53.2159,171.0985,28.5775,244.2297,-0.00069107,-0.00011272,0.0,0 STARLINK-3159,1 49415U 21104H   22096.91667824 -.00011272  00000-0 -69107-3 0  9994,2 49415  53.2159 171.0985 0002367  28.5775 244.2297 15.08846099  3567,6917.861999999999,95.437,541.364,538.089,0.0
49415.0,STARLINK-3159,PAYLOAD,2022-04-07 06:00:00,15.08862595,0.0002309,53.2161,169.6018,31.4369,252.9604,-0.00089459,-0.00014507,0.0,0 STARLINK-3159,1 49415U 21104H   22097.25001157 -.00014507  00000-0 -89459-3 0  9999,2 49415  53.2161 169.6018 0002309  31.4369 252.9604 15.08862595 23602,6917.811,95.436,541.274,538.0790000000002,0.0
49415.0,STARLINK-3159,PAYLOAD,2022-04-07 14:00:01,15.08821066,0.0002572,53.2162,168.1071,27.6772,268.3438,0.0019502,0.00030871,0.0,0 STARLINK-3159,1 49415U 21104H   22097.58334491  .00030871  00000-0  19502-2 0  9996,2 49415  53.2162 168.1071 0002572  27.6772 268.3438 15.08821066  3616,6917.938,95.439,541.5830000000002,538.024,0.0
49415.0,STARLINK-3159,PAYLOAD,2022-04-07 22:00:00,15.08857062,0.0002446,53.2163,166.6093,28.2159,279.4013,-0.00040889,-6.793e-05,0.0,0 STARLINK-3159,1 49415U 21104H   22097.91667824 -.00006793  00000-0 -40889-3 0  9993,2 49415  53.2163 166.6093 0002446  28.2159 279.4013 15.08857062  3606,6917.828,95.436,541.385,538.001,0.0
49415.0,STARLINK-3159,PAYLOAD,2022-04-08 06:00:00,15.08875363,0.0002453,53.2166,165.1125,32.1458,287.0867,-0.0017352999999999,-0.00027828,0.0,0 STARLINK-3159,1 49415U 21104H   22098.25001157 -.00027828  00000-0 -17353-2 0  9993,2 49415  53.2166 165.1125 0002453  32.1458 287.0867 15.08875363 23757,6917.772,95.435,541.3340000000002,537.94,0.0
49415.0,STARLINK-3159,PAYLOAD,2022-04-08 14:00:03,15.08839837,0.0002683,53.2167,163.6177,29.9023,301.0768,0.001723,0.00027241,0.0,0 STARLINK-3159,1 49415U 21104H   22098.58336806  .00027241  00000-0  17230-2 0  9992,2 49415  53.2167 163.6177 0002683  29.9023 301.0768 15.08839837  3600,6917.880999999999,95.438,541.602,537.89,0.0
49415.0,STARLINK-3159,PAYLOAD,2022-04-08 22:00:00,15.08855598,0.0002475,53.2168,162.1199,28.926,313.5399,-0.0033549,-0.00053312,0.0,0 STARLINK-3159,1 49415U 21104H   22098.91667824 -.00053312  00000-0 -33549-2 0  9997,2 49415  53.2168 162.1199 0002475  28.9260 313.5399 15.08855598  3576,6917.833000000001,95.437,541.41,537.986,0.0
49415.0,STARLINK-3159,PAYLOAD,2022-04-09 14:00:01,15.08808595,0.000263,53.2171,159.1288,26.7584,338.8672,0.0023275,0.00036918,0.0,0 STARLINK-3159,1 49415U 21104H   22099.58334491  .00036918  00000-0  23275-2 0  9998,2 49415  53.2171 159.1288 0002630  26.7584 338.8672 15.08808595 23956,6917.976,95.44,541.661,538.0219999999998,0.0
49415.0,STARLINK-3159,PAYLOAD,2022-04-09 22:00:00,15.08828665,0.0002424,53.2171,157.6309,27.4125,349.8051,-0.00064735,-0.00010573,0.0,0 STARLINK-3159,1 49415U 21104H   22099.91667824 -.00010573  00000-0 -64735-3 0  9992,2 49415  53.2171 157.6309 0002424  27.4125 349.8051 15.08828665  3617,6917.915,95.438,541.457,538.1030000000002,0.0
49415.0,STARLINK-3159,PAYLOAD,2022-04-10 06:00:02,15.08841358,0.0002406,53.2174,156.1348,28.2525,0.5954,-0.00052345,-8.609999999999999e-05,0.0,0 STARLINK-3159,1 49415U 21104H   22100.25002315 -.00008610  00000-0 -52345-3 0  9993,2 49415  53.2174 156.1348 0002406  28.2525   0.5954 15.08841358 24069,6917.876,95.437,541.406,538.077,0.0
49415.0,STARLINK-3159,PAYLOAD,2022-04-10 14:00:01,15.08814572,0.000261,53.2172,154.6399,25.7106,14.6692,0.0031147,0.00049598,0.0,0 STARLINK-3159,1 49415U 21104H   22100.58334491  .00049598  00000-0  31147-2 0  9996,2 49415  53.2172 154.6399 0002610  25.7106  14.6692 15.08814572  3600,6917.958000000001,95.439,541.629,538.018,0.0
49415.0,STARLINK-3159,PAYLOAD,2022-04-10 22:00:00,15.08844076,0.0002383,53.2171,153.1419,26.6295,25.3536,-0.00080811,-0.00013128,0.0,0 STARLINK-3159,1 49415U 21104H   22100.91667824 -.00013128  00000-0 -80811-3 0  9997,2 49415  53.2171 153.1419 0002383  26.6295  25.3536 15.08844076  3600,6917.868,95.437,541.381,538.0840000000002,0.0
49415.0,STARLINK-3159,PAYLOAD,2022-04-11 06:00:00,15.08849728,0.0002384,53.2173,151.6461,26.9711,36.592,-0.00094112,-0.0001524,0.0,0 STARLINK-3159,1 49415U 21104H   22101.25001157 -.00015240  00000-0 -94112-3 0  9992,2 49415  53.2173 151.6461 0002384  26.9711  36.5920 15.08849728 24219,6917.851,95.437,541.365,538.066,0.0
49415.0,STARLINK-3159,PAYLOAD,2022-04-11 14:00:01,15.088261,0.0002571,53.2169,150.1512,23.9474,51.2092,0.00050692,7.786e-05,0.0,0 STARLINK-3159,1 49415U 21104H   22101.58334491  .00007786  00000-0  50692-3 0  9997,2 49415  53.2169 150.1512 0002571  23.9474  51.2092 15.08826100  3609,6917.9230000000025,95.438,541.566,538.009,0.0
49415.0,STARLINK-3159,PAYLOAD,2022-04-11 22:00:00,15.08803257,0.0002327,53.2168,148.6531,24.6703,62.0771,0.0016028,0.00025287,0.0,0 STARLINK-3159,1 49415U 21104H   22101.91667824  .00025287  00000-0  16028-2 0  9993,2 49415  53.2168 148.6531 0002327  24.6703  62.0771 15.08803257  3593,6917.993,95.44,541.4680000000002,538.248,0.0
49415.0,STARLINK-3159,PAYLOAD,2022-04-12 06:00:02,15.08838566,0.000239,53.2168,147.1574,26.432,71.9317,-0.0015441,-0.00024779,0.0,0 STARLINK-3159,1 49415U 21104H   22102.25002315 -.00024779  00000-0 -15441-2 0  9994,2 49415  53.2168 147.1574 0002390  26.4320  71.9317 15.08838566 24363,6917.885,95.438,541.403,538.096,0.0
49415.0,STARLINK-3159,PAYLOAD,2022-04-12 14:00:01,15.08803467,0.0002594,53.2164,145.6624,24.1093,85.7755,0.0029377,0.0004673,0.0,0 STARLINK-3159,1 49415U 21104H   22102.58334491  .00046730  00000-0  29377-2 0  9995,2 49415  53.2164 145.6624 0002594  24.1093  85.7755 15.08803467  3612,6917.9919999999975,95.44,541.6519999999998,538.063,0.0
49415.0,STARLINK-3159,PAYLOAD,2022-04-12 22:00:00,15.08814021,0.0002391,53.2164,144.1643,26.3595,95.1024,0.001873,0.00029626,0.0,0 STARLINK-3159,1 49415U 21104H   22102.91667824  .00029626  00000-0  18730-2 0  9997,2 49415  53.2164 144.1643 0002391  26.3595  95.1024 15.08814021 24461,6917.96,95.439,541.479,538.1709999999998,0.0
49415.0,STARLINK-3159,PAYLOAD,2022-04-13 14:00:03,15.08820884,0.0002691,53.216,141.1732,25.6913,119.0689,0.0027406,0.00043577,0.0,0 STARLINK-3159,1 49415U 21104H   22103.58336806  .00043577  00000-0  27406-2 0  9995,2 49415  53.2160 141.1732 0002691  25.6913 119.0689 15.08820884  3613,6917.939,95.439,541.665,537.942,0.0
49415.0,STARLINK-3159,PAYLOAD,2022-04-13 22:00:00,15.08830933,0.0002499,53.216,139.6751,28.0518,128.186,0.0023283,0.00036953,0.0,0 STARLINK-3159,1 49415U 21104H   22103.91667824  .00036953  00000-0  23283-2 0  9998,2 49415  53.2160 139.6751 0002499  28.0518 128.1860 15.08830933 24611,6917.908,95.438,541.502,538.044,0.0
49415.0,STARLINK-3159,PAYLOAD,2022-04-14 14:00:01,15.08850241,0.0002787,53.2158,136.6839,26.6104,152.832,-5.484e-05,-1.162e-05,0.0,0 STARLINK-3159,1 49415U 21104H   22104.58334491 -.00001162  00000-0 -54840-4 0  9994,2 49415  53.2158 136.6839 0002787  26.6104 152.8320 15.08850241 24717,6917.849,95.437,541.6419999999998,537.786,0.0
49415.0,STARLINK-3159,PAYLOAD,2022-04-14 22:00:00,15.08818237,0.0002566,53.2159,135.1856,27.3259,163.7393,0.0019472,0.0003082,0.0,0 STARLINK-3159,1 49415U 21104H   22104.91667824  .00030820  00000-0  19472-2 0  9991,2 49415  53.2159 135.1856 0002566  27.3259 163.7393 15.08818237  3600,6917.946999999999,95.439,541.587,538.0369999999998,0.0
49415.0,STARLINK-3159,PAYLOAD,2022-04-15 14:00:01,15.08845605,0.0002862,53.2159,132.1943,27.1148,187.1494,0.0021139,0.00033522,0.0,0 STARLINK-3159,1 49415U 21104H   22105.58334491  .00033522  00000-0  21139-2 0  9991,2 49415  53.2159 132.1943 0002862  27.1148 187.1494 15.08845605  3609,6917.863,95.437,541.7080000000002,537.748,0.0
49415.0,STARLINK-3159,PAYLOAD,2022-04-15 22:00:00,15.08846452,0.0002642,53.216,130.696,29.0187,196.8623,0.0016387,0.00025894,0.0,0 STARLINK-3159,1 49415U 21104H   22105.91667824  .00025894  00000-0  16387-2 0  9999,2 49415  53.2160 130.6960 0002642  29.0187 196.8623 15.08846452 24912,6917.861,95.437,541.553,537.898,0.0
49415.0,STARLINK-3159,PAYLOAD,2022-04-16 06:00:00,15.08848855,0.0002749,53.2163,129.2005,28.437,209.0266,-0.0012851,-0.00020689,0.0,0 STARLINK-3159,1 49415U 21104H   22106.25001157 -.00020689  00000-0 -12851-2 0  9999,2 49415  53.2163 129.2005 0002749  28.4370 209.0266 15.08848855 24968,6917.853,95.437,541.62,537.817,0.0
49415.0,STARLINK-3159,PAYLOAD,2022-04-16 14:00:01,15.08836757,0.0002886,53.2159,127.7047,26.759,222.2966,0.00090047,0.00014071,0.0,0 STARLINK-3159,1 49415U 21104H   22106.58334491  .00014071  00000-0  90047-3 0  9995,2 49415  53.2159 127.7047 0002886  26.7590 222.2966 15.08836757  3564,6917.89,95.438,541.752,537.759,0.0
49415.0,STARLINK-3159,PAYLOAD,2022-04-16 22:00:01,15.08829954,0.000266,53.2162,126.2064,29.1164,231.6061,0.0014759,0.00023273,0.0,0 STARLINK-3159,1 49415U 21104H   22106.91668981  .00023273  00000-0  14759-2 0  9995,2 49415  53.2162 126.2064 0002660  29.1164 231.6061 15.08829954 25065,6917.911,95.438,541.616,537.936,0.0
49415.0,STARLINK-3159,PAYLOAD,2022-04-17 14:00:01,15.08827387,0.0002871,53.216,123.2151,26.2316,257.5999,0.00016378,2.318e-05,0.0,0 STARLINK-3159,1 49415U 21104H   22107.58334491  .00002318  00000-0  16378-3 0  9992,2 49415  53.2160 123.2151 0002871  26.2316 257.5999 15.08827387 25164,6917.919,95.438,541.77,537.798,0.0
